NORAD_CAT_ID,OBJECT_NAME,OBJECT_TYPE,EPOCH,MEAN_MOTION,ECCENTRICITY,INCLINATION,RA_OF_ASC_NODE,ARG_OF_PERICENTER,MEAN_ANOMALY,BSTAR,MEAN_MOTION_DOT,MEAN_MOTION_DDOT,TLE_LINE0,TLE_LINE1,TLE_LINE2,SEMIMAJOR_AXIS,PERIOD,APOGEE,PERIGEE,DECAYED
52284.0,STARLINK-3561,PAYLOAD,2023-08-23 11:50:33,15.08839233,0.0001258,53.219,310.4456,97.6769,262.4366,5.8576e-05,6.44e-06,0.0,0 STARLINK-3561,1 52284U 22041Z   23235.49344210  .00000644  00000-0  58576-4 0  9991,2 52284  53.2190 310.4456 0001258  97.6769 262.4366 15.08839233 75447,6917.883,95.438,540.618,538.877,0.0
52284.0,STARLINK-3561,PAYLOAD,2023-08-24 11:41:20,15.08841168,0.000123,53.218,305.9839,104.1426,255.9703,5.1242e-05,5.28e-06,0.0,0 STARLINK-3561,1 52284U 22041Z   23236.48704055  .00000528  00000-0  51242-4 0  9992,2 52284  53.2180 305.9839 0001230 104.1426 255.9703 15.08841168 74377,6917.877,95.437,540.593,538.891,0.0
52284.0,STARLINK-3561,PAYLOAD,2023-08-25 09:56:44,15.08837688,0.0001246,53.2179,301.8211,99.9231,260.1902,6.1157e-05,6.86e-06,0.0,0 STARLINK-3561,1 52284U 22041Z   23237.41440375  .00000686  00000-0  61157-4 0  9999,2 52284  53.2179 301.8211 0001246  99.9231 260.1902 15.08837688 75738,6917.887,95.438,540.614,538.89,0.0
52284.0,STARLINK-3561,PAYLOAD,2023-08-25 11:32:07,15.08838084,0.000125,53.2179,301.5238,99.9554,260.158,6.3098e-05,7.16e-06,0.0,0 STARLINK-3561,1 52284U 22041Z   23237.48064363  .00000716  00000-0  63098-4 0  9995,2 52284  53.2179 301.5238 0001250  99.9554 260.1580 15.08838084 74526,6917.886,95.438,540.616,538.887,0.0
52284.0,STARLINK-3561,PAYLOAD,2023-08-26 11:22:54,15.08838791,0.0001281,53.2179,297.0633,99.3417,260.772,3.8691e-05,3.28e-06,0.0,0 STARLINK-3561,1 52284U 22041Z   23238.47424672  .00000328  00000-0  38691-4 0  9998,2 52284  53.2179 297.0633 0001281  99.3417 260.7720 15.08838791 74673,6917.884,95.438,540.635,538.863,0.0
52284.0,STARLINK-3561,PAYLOAD,2023-08-27 09:38:18,15.08841535,0.000135,53.2178,292.8995,97.8422,262.2724,8.2067e-05,1.018e-05,0.0,0 STARLINK-3561,1 52284U 22041Z   23239.40160485  .00001018  00000-0  82067-4 0  9994,2 52284  53.2178 292.8995 0001350  97.8422 262.2724 15.08841535 74819,6917.876,95.437,540.675,538.807,0.0
52284.0,STARLINK-3561,PAYLOAD,2023-08-27 11:13:41,15.08842495,0.0001272,53.2174,292.602,94.4726,265.6411,8.4369e-05,1.055e-05,0.0,0 STARLINK-3561,1 52284U 22041Z   23239.46784406  .00001055  00000-0  84369-4 0  9993,2 52284  53.2174 292.6020 0001272  94.4726 265.6411 15.08842495 74822,6917.873,95.437,540.618,538.858,0.0
52284.0,STARLINK-3561,PAYLOAD,2023-08-28 03:07:33,15.08837901,0.0001237,53.2171,289.6281,90.9681,269.1453,4.2301e-05,3.85e-06,0.0,0 STARLINK-3561,1 52284U 22041Z   23240.13024930  .00000385  00000-0  42301-4 0  9993,2 52284  53.2171 289.6281 0001237  90.9681 269.1453 15.08837901 76144,6917.887,95.438,540.608,538.896,0.0
52284.0,STARLINK-3561,PAYLOAD,2023-08-28 20:36:47,15.0884237,0.0001314,53.2169,286.3572,85.5733,274.5409,6.2434e-05,7.06e-06,0.0,0 STARLINK-3561,1 52284U 22041Z   23240.85888595  .00000706  00000-0  62434-4 0  9993,2 52284  53.2169 286.3572 0001314  85.5733 274.5409 15.08842370 75036,6917.873,95.437,540.647,538.829,0.0
52284.0,STARLINK-3561,PAYLOAD,2023-08-29 09:19:52,15.08844062,0.0001347,53.2166,283.978,87.4328,272.6818,4.7278e-05,4.65e-06,0.0,0 STARLINK-3561,1 52284U 22041Z   23241.38880463  .00000465  00000-0  47278-4 0  9999,2 52284  53.2166 283.9780 0001347  87.4328 272.6818 15.08844062 76331,6917.868,95.437,540.665,538.801,0.0
52284.0,STARLINK-3561,PAYLOAD,2023-08-30 09:10:40,15.08836725,0.0001374,53.2162,279.5177,86.628,273.4869,3.5207e-05,2.72e-06,0.0,0 STARLINK-3561,1 52284U 22041Z   23242.38241022  .00000272  00000-0  35207-4 0  9997,2 52284  53.2162 279.5177 0001374  86.6280 273.4869 15.08836725 76484,6917.89,95.438,540.706,538.805,0.0
52284.0,STARLINK-3561,PAYLOAD,2023-08-30 13:56:49,15.08833698,0.0001357,53.2161,278.6265,79.3304,280.7841,0.00012496,1.701e-05,0.0,0 STARLINK-3561,1 52284U 22041Z   23242.58113047  .00001701  00000-0  12496-3 0  9996,2 52284  53.2161 278.6265 0001357  79.3304 280.7841 15.08833698 75293,6917.9,95.438,540.703,538.826,0.0
52284.0,STARLINK-3561,PAYLOAD,2023-08-31 10:36:50,15.08824167,0.0001387,53.2159,274.7607,84.4102,275.7048,0.0002776,4.131e-05,0.0,0 STARLINK-3561,1 52284U 22041Z   23243.44224969  .00004131  00000-0  27760-3 0  9998,2 52284  53.2159 274.7607 0001387  84.4102 275.7048 15.08824167 76647,6917.929,95.439,540.753,538.834,0.0
52284.0,STARLINK-3561,PAYLOAD,2023-09-01 12:03:00,15.08836996,0.0001275,53.2153,270.0044,70.1412,289.9717,1.1579e-05,-1.04e-06,0.0,0 STARLINK-3561,1 52284U 22041Z   23244.50209260 -.00000104  00000-0  11579-4 0  9992,2 52284  53.2153 270.0044 0001275  70.1412 289.9717 15.08836996 76808,6917.89,95.438,540.637,538.873,0.0
52284.0,STARLINK-3561,PAYLOAD,2023-09-01 18:24:33,15.08837528,0.0001333,53.2158,268.8136,76.2776,283.8365,2.1434e-05,5.3e-07,0.0,0 STARLINK-3561,1 52284U 22041Z   23244.76705238  .00000053  00000-0  21434-4 0  9999,2 52284  53.2158 268.8136 0001333  76.2776 283.8365 15.08837528 75628,6917.888,95.438,540.675,538.831,0.0
52284.0,STARLINK-3561,PAYLOAD,2023-09-02 08:43:01,15.08840521,0.0001069,53.2165,266.1364,83.5508,276.5606,9.6908e-05,1.255e-05,0.0,0 STARLINK-3561,1 52284U 22041Z   23245.36320687  .00001255  00000-0  96908-4 0  9990,2 52284  53.2165 266.1364 0001069  83.5508 276.5606 15.08840521 75714,6917.879,95.438,540.483,539.004,0.0
52284.0,STARLINK-3561,PAYLOAD,2023-09-03 10:09:11,15.08841569,0.0001077,53.2148,261.379,85.3602,274.7513,8.1406e-05,1.008e-05,0.0,0 STARLINK-3561,1 52284U 22041Z   23246.42304859  .00001008  00000-0  81406-4 0  9994,2 52284  53.2148 261.3790 0001077  85.3602 274.7513 15.08841569 77092,6917.876,95.437,540.486,538.996,0.0
52284.0,STARLINK-3561,PAYLOAD,2023-09-03 22:52:17,15.08830384,0.0001252,53.2166,259.0,79.4975,280.6158,-1.8888e-05,-5.88e-06,0.0,0 STARLINK-3561,1 52284U 22041Z   23246.95297998 -.00000588  00000-0 -18888-4 0  9995,2 52284  53.2166 259.0000 0001252  79.4975 280.6158 15.08830384 77175,6917.91,95.438,540.641,538.909,0.0
52284.0,STARLINK-3561,PAYLOAD,2023-09-04 09:59:59,15.08838019,0.0001108,53.2162,256.9159,87.6317,272.4802,-1.399e-05,-5.1e-06,0.0,0 STARLINK-3561,1 52284U 22041Z   23247.41665577 -.00000510  00000-0 -13990-4 0  9993,2 52284  53.2162 256.9159 0001108  87.6317 272.4802 15.08838019 77249,6917.886,95.438,540.518,538.985,0.0
52284.0,STARLINK-3561,PAYLOAD,2023-09-05 00:18:27,15.08835777,0.000154,53.2163,254.2411,89.1009,271.0159,3.0598e-05,1.99e-06,0.0,0 STARLINK-3561,1 52284U 22041Z   23248.01281835  .00000199  00000-0  30598-4 0  9995,2 52284  53.2163 254.2411 0001540  89.1009 271.0159 15.08835777 76110,6917.893,95.438,540.824,538.693,0.0
52284.0,STARLINK-3561,PAYLOAD,2023-09-05 17:47:41,15.08839236,0.0001538,53.2163,250.9701,89.1643,270.9526,8.2188e-05,1.02e-05,0.0,0 STARLINK-3561,1 52284U 22041Z   23248.74145552  .00001020  00000-0  82188-4 0  9996,2 52284  53.2163 250.9701 0001538  89.1643 270.9526 15.08839236 77443,6917.883,95.438,540.812,538.684,0.0
52284.0,STARLINK-3561,PAYLOAD,2023-09-06 00:09:14,15.08836746,0.0001535,53.2162,249.7801,90.9574,269.1594,0.00012233,1.659e-05,0.0,0 STARLINK-3561,1 52284U 22041Z   23249.00641612  .00001659  00000-0  12233-3 0  9995,2 52284  53.2162 249.7801 0001535  90.9574 269.1594 15.08836746 76266,6917.89,95.438,540.817,538.693,0.0
52284.0,STARLINK-3561,PAYLOAD,2023-09-07 00:00:01,15.08839819,0.0001494,53.2157,245.3194,93.3503,266.766,5.1348e-05,5.29e-06,0.0,0 STARLINK-3561,1 52284U 22041Z   23250.00001679  .00000529  00000-0  51348-4 0  9996,2 52284  53.2157 245.3194 0001494  93.3503 266.7660 15.08839819 77633,6917.881,95.438,540.779,538.712,0.0
52284.0,STARLINK-3561,PAYLOAD,2023-09-07 06:21:33,15.08840751,0.000149,53.2157,244.1297,93.9403,266.1759,5.5456e-05,5.95e-06,0.0,0 STARLINK-3561,1 52284U 22041Z   23250.26497598  .00000595  00000-0  55456-4 0  9990,2 52284  53.2157 244.1297 0001490  93.9403 266.1759 15.08840751 76454,6917.878,95.438,540.774,538.712,0.0
52284.0,STARLINK-3561,PAYLOAD,2023-09-08 03:01:35,15.08837528,0.0001468,53.2163,240.2642,95.7064,264.4096,-1.2311e-05,-4.84e-06,0.0,0 STARLINK-3561,1 52284U 22041Z   23251.12610066 -.00000484  00000-0 -12311-4 0  9995,2 52284  53.2163 240.2642 0001468  95.7064 264.4096 15.08837528 77803,6917.888,95.438,540.768,538.737,0.0
52284.0,STARLINK-3561,PAYLOAD,2023-09-08 10:58:30,15.08840819,0.0001498,53.2161,238.7778,95.7508,264.3655,2.5679e-05,1.21e-06,0.0,0 STARLINK-3561,1 52284U 22041Z   23251.45729755  .00000121  00000-0  25679-4 0  9994,2 52284  53.2161 238.7778 0001498  95.7508 264.3655 15.08840819 76636,6917.878,95.438,540.779,538.707,0.0
52284.0,STARLINK-3561,PAYLOAD,2023-09-08 15:44:40,15.08836594,0.000153,53.2161,237.8849,96.4235,263.6932,5.7163e-06,-1.97e-06,0.0,0 STARLINK-3561,1 52284U 22041Z   23251.65602097 -.00000197  00000-0  57163-5 0  9993,2 52284  53.2161 237.8849 0001530  96.4235 263.6932 15.08836594 76665,6917.891,95.438,540.814,538.697,0.0
52284.0,STARLINK-3561,PAYLOAD,2023-09-09 09:13:54,15.08843246,0.0001451,53.2162,234.6147,94.4243,265.6915,7.8317e-05,9.59e-06,0.0,0 STARLINK-3561,1 52284U 22041Z   23252.38465514  .00000959  00000-0  78317-4 0  9993,2 52284  53.2162 234.6147 0001451  94.4243 265.6915 15.08843246 77993,6917.87,95.437,540.739,538.732,0.0
52284.0,STARLINK-3561,PAYLOAD,2023-09-09 15:35:27,15.0883718,0.0001427,53.2161,233.425,91.9915,268.1241,7.7117e-05,9.39e-06,0.0,0 STARLINK-3561,1 52284U 22041Z   23252.64961969  .00000939  00000-0  77117-4 0  9992,2 52284  53.2161 233.4250 0001427  91.9915 268.1241 15.08837180 78031,6917.889,95.438,540.741,538.767,0.0
52284.0,STARLINK-3561,PAYLOAD,2023-09-10 09:04:41,15.08835858,0.0001534,53.2167,230.154,98.9199,261.1967,6.4719e-05,7.42e-06,0.0,0 STARLINK-3561,1 52284U 22041Z   23253.37826321  .00000742  00000-0  64719-4 0  9991,2 52284  53.2167 230.1540 0001534  98.9199 261.1967 15.08835858 76927,6917.893,95.438,540.819,538.697,0.0
